OBJECT_NAME,OBJECT_ID,EPOCH,MEAN_MOTION,ECCENTRICITY,INCLINATION,RA_OF_ASC_NODE,ARG_OF_PERICENTER,MEAN_ANOMALY,EPHEMERIS_TYPE,CLASSIFICATION_TYPE,NORAD_CAT_ID,ELEMENT_SET_NO,REV_AT_EPOCH,BSTAR,MEAN_MOTION_DOT,MEAN_MOTION_DDOT
INNOSAT 3 (RS92S0),2025-155U,2026-06-16T14:23:28.823424,15.43789907,.00064175,97.4487,139.0815,152.6981,207.4605,0,U,64894,999,8087,.71064687E-3,.32184E-3,0
KNACKSAT-2,1998-067XZ,2026-06-16T15:29:59.515872,15.59934910,.00091894,51.6312,297.1999,212.7793,147.2631,0,U,67683,999,2019,.48230159E-3,.39403E-3,0
