KNACKSAT-2              
1 67683U 98067XZ  26167.64582773  .00039403  00000+0  48230-3 0  9992
2 67683  51.6312 297.1999 0009189 212.7793 147.2631 15.59934910 20196
INNOSAT 3 (RS92S0)      
1 64894U 25155U   26167.59963916  .00032184  00000+0  71065-3 0  9998
2 64894  97.4487 139.0815 0006417 152.6981 207.4605 15.43789907 80879
